{"type":"Feature","properties":{"MUN":"MONMOUTH BEACH BORO","COUNTY":"MONMOUTH","MUN_LABEL":"Monmouth Beach Borough","MUN_TYPE":"Borough","NAME":"Monmouth Beach Borough","GNIS_NAME":"Borough of Monmouth Beach"},"geometry":{"type":"Polygon","coordinates":[[[-73.9866219,40.3459286],[-73.972359,40.3458644],[-73.9723701,40.3453916],[-73.9723528,40.3444022],[-73.9723183,40.3438374],[-73.9722607,40.3434083],[-73.9722685,40.3427587],[-73.9723357,40.3419608],[-73.9723746,40.3416043],[-73.9724782,40.3411207],[-73.9727258,40.3399628],[-73.9727471,40.3397293],[-73.9727838,40.3392964],[-73.9728292,40.3384432],[-73.9728642,40.3378702],[-73.972843,40.3376895],[-73.972778,40.3372374],[-73.9727356,40.3365877],[-73.9727471,40.3364668],[-73.9727967,40.3361846],[-73.9728261,40.3360713],[-73.9730404,40.3354229],[-73.9730906,40.3352009],[-73.9731007,40.3350689],[-73.9730985,40.3349531],[-73.9730575,40.3347839],[-73.9729717,40.3345335],[-73.9727462,40.334155],[-73.9726326,40.3339831],[-73.9725973,40.3338464],[-73.9724486,40.3333224],[-73.9724046,40.3331485],[-73.9723963,40.3330443],[-73.972397,40.3329563],[-73.9724128,40.3328707],[-73.9725304,40.3326115],[-73.9726165,40.3323518],[-73.9727098,40.3321351],[-73.9727694,40.3319969],[-73.9728337,40.3318157],[-73.9728592,40.3316454],[-73.9728752,40.3314566],[-73.9728799,40.3312785],[-73.972882,40.3311974],[-73.9728749,40.3308751],[-73.9729191,40.3304771],[-73.9730345,40.3299517],[-73.9731915,40.3293547],[-73.973194,40.3293404],[-73.9732049,40.3293037],[-73.973431,40.3284442],[-73.9736426,40.327684],[-73.9736978,40.3274324],[-73.9737135,40.3272806],[-73.973715,40.3270843],[-73.9736904,40.3268157],[-73.9736961,40.3267157],[-73.9737119,40.3265491],[-73.9738069,40.3261495],[-73.9738826,40.3257572],[-73.973971,40.3252706],[-73.9740374,40.324819],[-73.974158,40.3242565],[-73.9742877,40.3234404],[-73.9743735,40.3229778],[-73.9744812,40.3225061],[-73.9745304,40.3221781],[-73.977351,40.3221909],[-73.977595,40.3226204],[-73.9777905,40.3229897],[-73.9779047,40.3231435],[-73.9779076,40.3231475],[-73.9780227,40.3233662],[-73.9782361,40.3237719],[-73.9802458,40.3236589],[-73.9804065,40.3240769],[-73.9805873,40.3240573],[-73.9806499,40.3240504],[-73.9806066,40.3237143],[-73.9813882,40.3236674],[-73.9813587,40.3235613],[-73.9820646,40.3235126],[-73.9820708,40.3235446],[-73.982537,40.3235079],[-73.9832752,40.3242426],[-73.983315,40.324239],[-73.9835212,40.324206],[-73.9837425,40.3241827],[-73.9839425,40.3241633],[-73.9843149,40.3241406],[-73.984372,40.3241422],[-73.9843326,40.3242796],[-73.9842737,40.3245821],[-73.984243,40.3249135],[-73.9842496,40.3252811],[-73.9843231,40.3255193],[-73.9843459,40.3255597],[-73.9844532,40.3257505],[-73.9846586,40.3259893],[-73.9848497,40.3262424],[-73.9850821,40.3266471],[-73.9851834,40.3269431],[-73.9853022,40.3274442],[-73.9856821,40.3273907],[-73.9859815,40.3273538],[-73.9861498,40.3273546],[-73.9863866,40.3273461],[-73.9866799,40.3273045],[-73.9868797,40.3272481],[-73.987036,40.3271868],[-73.9871549,40.327111],[-73.9872491,40.3270256],[-73.9873433,40.3269354],[-73.9874309,40.3268738],[-73.9875374,40.3268075],[-73.9876438,40.3267412],[-73.9877439,40.3266891],[-73.9878315,40.3266514],[-73.9879502,40.3266138],[-73.9880875,40.3265762],[-73.9881749,40.3265575],[-73.9882996,40.3265485],[-73.9884928,40.3265494],[-73.9886174,40.3265595],[-73.9887316,40.3265876],[-73.9887356,40.3265886],[-73.9888225,40.3266224],[-73.9889404,40.3266897],[-73.9890397,40.3267474],[-73.9891387,40.3268384],[-73.9892563,40.3269438],[-73.9894169,40.3271353],[-73.9895563,40.3272552],[-73.9898045,40.3273946],[-73.9902144,40.3275729],[-73.9907735,40.327809],[-73.9908077,40.3278229],[-73.9917598,40.3281858],[-73.9926127,40.3284804],[-73.9932837,40.3286848],[-73.9938673,40.3288328],[-73.9946188,40.329015],[-73.9958406,40.3293448],[-73.9967449,40.3296173],[-73.9972479,40.3297032],[-73.9971598,40.3303168],[-73.9971159,40.3316961],[-73.9971359,40.3326331],[-73.9971712,40.3328797],[-73.9972126,40.3331687],[-73.9973829,40.3337872],[-73.9973899,40.3338015],[-73.9975119,40.334051],[-73.998558,40.3353013],[-73.9992477,40.3362544],[-73.9998817,40.3372601],[-74.0000015,40.3375055],[-74.0001222,40.3377425],[-74.0009869,40.3395379],[-74.0024345,40.3416716],[-74.0027275,40.3420776],[-74.0014477,40.3431977],[-74.000315,40.3442222],[-74.0000015,40.3445056],[-73.9999496,40.3445545],[-73.9995305,40.3448927],[-73.9986892,40.3453747],[-73.9955052,40.3468176],[-73.9944358,40.3472596],[-73.9934676,40.3477216],[-73.9924998,40.3481446],[-73.9916589,40.3485683],[-73.9910699,40.3488135],[-73.990173,40.3482192],[-73.9883317,40.3470514],[-73.9866219,40.3459286]]]}}
